{"fetched_at":"2026-03-29T02:12:04Z","count":15717,"tles":[{"name":"STARLINK-35861","line1":"1 66355U 25254H   26087.57303141  .00027854  00000+0  94906-3 0  9996","line2":"2 66355  53.1586 144.9682 0001104  74.6005 285.5117 15.30199446 21865","category":"Starlink"}]}